{
"type": "FeatureCollection",
"name": "facilities_export",
"crs": { "type": "name", "properties": { "name": "urn:ogc:def:crs:OGC:1.3:CRS84" } },
"features": [
{ "type": "Feature", "properties": { "name": "Eden Hospital", "assumed_capacity": 200, "demand": 7151.13525390625, "load_ratio": 35.75567626953125 }, "geometry": { "type": "Point", "coordinates": [ 88.3600196, 22.5727398 ] } },
{ "type": "Feature", "properties": { "name": "Calcutta Medical College & Hospital", "assumed_capacity": 500, "demand": 5790.4970703125, "load_ratio": 11.580994140625 }, "geometry": { "type": "Point", "coordinates": [ 88.3614363, 22.5722242 ] } },
{ "type": "Feature", "properties": { "name": "Vidyasagar State General Hospital", "assumed_capacity": 200, "demand": 26410.751953125, "load_ratio": 132.05375976562499 }, "geometry": { "type": "Point", "coordinates": [ 88.3163322, 22.4987178 ] } },
{ "type": "Feature", "properties": { "name": null, "assumed_capacity": 200, "demand": 377014.07763671875, "load_ratio": 1885.0703881835936 }, "geometry": { "type": "Point", "coordinates": [ 88.3121663, 22.4951399 ] } },
{ "type": "Feature", "properties": { "name": "Peerless Hospital and B.K.Roy Research Center", "assumed_capacity": 500, "demand": 25617.90283203125, "load_ratio": 51.235805664062497 }, "geometry": { "type": "Point", "coordinates": [ 88.3938205, 22.4809641 ] } },
{ "type": "Feature", "properties": { "name": "Chittaranjan Shishu Hospital", "assumed_capacity": 200, "demand": 0.0, "load_ratio": 0.0 }, "geometry": { "type": "Point", "coordinates": [ 88.3471209, 22.5264408 ] } },
{ "type": "Feature", "properties": { "name": "Chittaranjan Seva Sadan", "assumed_capacity": 200, "demand": 7054.28125, "load_ratio": 35.27140625 }, "geometry": { "type": "Point", "coordinates": [ 88.3470069, 22.5259264 ] } },
{ "type": "Feature", "properties": { "name": "Chittaranjan National Cancer Institute Hospital", "assumed_capacity": 200, "demand": 0.0, "load_ratio": 0.0 }, "geometry": { "type": "Point", "coordinates": [ 88.3466423, 22.5252694 ] } },
{ "type": "Feature", "properties": { "name": "Centre Point Nursing Home", "assumed_capacity": 80, "demand": 16506.5361328125, "load_ratio": 206.33170166015626 }, "geometry": { "type": "Point", "coordinates": [ 88.3451221, 22.5291683 ] } },
{ "type": "Feature", "properties": { "name": "Mayor Chect Clinick", "assumed_capacity": 200, "demand": 10676.403564453125, "load_ratio": 53.382017822265624 }, "geometry": { "type": "Point", "coordinates": [ 88.3507269, 22.5895694 ] } },
{ "type": "Feature", "properties": { "name": "Prima Orthopaedic Centre", "assumed_capacity": 200, "demand": 280218.634765625, "load_ratio": 1401.0931738281249 }, "geometry": { "type": "Point", "coordinates": [ 88.3079611, 22.4731537 ] } },
{ "type": "Feature", "properties": { "name": "ESI HOSPITAL, SEALDAH", "assumed_capacity": 200, "demand": 0.0, "load_ratio": 0.0 }, "geometry": { "type": "Point", "coordinates": [ 88.3730073, 22.5728574 ] } },
{ "type": "Feature", "properties": { "name": "Chandi tala health center", "assumed_capacity": 200, "demand": 48921.611328125, "load_ratio": 244.60805664062499 }, "geometry": { "type": "Point", "coordinates": [ 88.3460553, 22.4866272 ] } },
{ "type": "Feature", "properties": { "name": "Behala Balananda Brahmachari Hospital and Research Center", "assumed_capacity": 200, "demand": 16195.56689453125, "load_ratio": 80.977834472656255 }, "geometry": { "type": "Point", "coordinates": [ 88.3205755, 22.5065586 ] } },
{ "type": "Feature", "properties": { "name": "IRIS HOSPITAL", "assumed_capacity": 200, "demand": 0.0, "load_ratio": 0.0 }, "geometry": { "type": "Point", "coordinates": [ 88.375858, 22.4792072 ] } },
{ "type": "Feature", "properties": { "name": "Paramount Nursing Home", "assumed_capacity": 200, "demand": 0.0, "load_ratio": 0.0 }, "geometry": { "type": "Point", "coordinates": [ 88.3486944, 22.5239877 ] } },
{ "type": "Feature", "properties": { "name": "Dr Rafi Ahmed Dental College & Hospital", "assumed_capacity": 200, "demand": 0.0, "load_ratio": 0.0 }, "geometry": { "type": "Point", "coordinates": [ 88.3679312, 22.5627691 ] } },
{ "type": "Feature", "properties": { "name": "UNB building, NRS medical college", "assumed_capacity": 500, "demand": 0.0, "load_ratio": 0.0 }, "geometry": { "type": "Point", "coordinates": [ 88.3695623, 22.5648794 ] } },
{ "type": "Feature", "properties": { "name": "NRS OPD Building", "assumed_capacity": 500, "demand": 0.0, "load_ratio": 0.0 }, "geometry": { "type": "Point", "coordinates": [ 88.3686937, 22.5645047 ] } },
{ "type": "Feature", "properties": { "name": "Bekar Ward, NRS Medical College", "assumed_capacity": 500, "demand": 0.0, "load_ratio": 0.0 }, "geometry": { "type": "Point", "coordinates": [ 88.3698611, 22.5633946 ] } },
{ "type": "Feature", "properties": { "name": "NRS Medical college & Hospital", "assumed_capacity": 500, "demand": 0.0, "load_ratio": 0.0 }, "geometry": { "type": "Point", "coordinates": [ 88.3691544, 22.5652972 ] } },
{ "type": "Feature", "properties": { "name": "Dr Rafi Ahmed Dental College & Hospital, Old Campus", "assumed_capacity": 200, "demand": 0.0, "load_ratio": 0.0 }, "geometry": { "type": "Point", "coordinates": [ 88.367509, 22.5629472 ] } },
{ "type": "Feature", "properties": { "name": "Obs & Gynaecology Building, NRS", "assumed_capacity": 500, "demand": 0.0, "load_ratio": 0.0 }, "geometry": { "type": "Point", "coordinates": [ 88.3690769, 22.563659 ] } },
{ "type": "Feature", "properties": { "name": null, "assumed_capacity": 200, "demand": 25152.5693359375, "load_ratio": 125.7628466796875 }, "geometry": { "type": "Point", "coordinates": [ 88.3602395, 22.5012444 ] } },
{ "type": "Feature", "properties": { "name": "Micro Phaco Surgery Centre", "assumed_capacity": 200, "demand": 6883.6337890625, "load_ratio": 34.418168945312502 }, "geometry": { "type": "Point", "coordinates": [ 88.3723557, 22.5572974 ] } },
{ "type": "Feature", "properties": { "name": "Recovery Nursing Home Pvt Ltd", "assumed_capacity": 80, "demand": 20912.4150390625, "load_ratio": 261.40518798828123 }, "geometry": { "type": "Point", "coordinates": [ 88.3639514, 22.5919688 ] } },
{ "type": "Feature", "properties": { "name": "Red Plus Society Nursing Home", "assumed_capacity": 200, "demand": 50938.100341796875, "load_ratio": 254.69050170898439 }, "geometry": { "type": "Point", "coordinates": [ 88.3850406, 22.4831664 ] } },
{ "type": "Feature", "properties": { "name": "The May Fair Hospital", "assumed_capacity": 200, "demand": 112985.4140625, "load_ratio": 564.92707031249995 }, "geometry": { "type": "Point", "coordinates": [ 88.3785443, 22.624456 ] } },
{ "type": "Feature", "properties": { "name": "Rameswara Nursing Home Pvt Ltd", "assumed_capacity": 200, "demand": 34088.939392089844, "load_ratio": 170.44469696044922 }, "geometry": { "type": "Point", "coordinates": [ 88.3929551, 22.5900155 ] } },
{ "type": "Feature", "properties": { "name": "Ramkrishna Medical Complex Nursing Home", "assumed_capacity": 80, "demand": 13791.0732421875, "load_ratio": 172.38841552734374 }, "geometry": { "type": "Point", "coordinates": [ 88.3859539, 22.5737119 ] } },
{ "type": "Feature", "properties": { "name": "Bhagirathi Neotia Woman And Child Care Centre", "assumed_capacity": 200, "demand": 6799.6787109375, "load_ratio": 33.998393554687503 }, "geometry": { "type": "Point", "coordinates": [ 88.3592599, 22.5474203 ] } },
{ "type": "Feature", "properties": { "name": "Sakuntala Nursing Home", "assumed_capacity": 80, "demand": 331653.75634765625, "load_ratio": 4145.6719543457029 }, "geometry": { "type": "Point", "coordinates": [ 88.2868892, 22.4856094 ] } },
{ "type": "Feature", "properties": { "name": "Rama Krishna Mission Seva Pratisthan", "assumed_capacity": 200, "demand": 0.0, "load_ratio": 0.0 }, "geometry": { "type": "Point", "coordinates": [ 88.3519824, 22.5234205 ] } },
{ "type": "Feature", "properties": { "name": "Ramakrishma Sarada Mission Matri Bhavan/Matri Bhavan Hospital", "assumed_capacity": 200, "demand": 11895.40625, "load_ratio": 59.47703125 }, "geometry": { "type": "Point", "coordinates": [ 88.34363, 22.5137804 ] } },
{ "type": "Feature", "properties": { "name": "Probal Eye Institute", "assumed_capacity": 200, "demand": 0.0, "load_ratio": 0.0 }, "geometry": { "type": "Point", "coordinates": [ 88.3474602, 22.5198434 ] } },
{ "type": "Feature", "properties": { "name": "Priyamvada Birla Aravind Eye Hospital", "assumed_capacity": 200, "demand": 0.0, "load_ratio": 0.0 }, "geometry": { "type": "Point", "coordinates": [ 88.3554102, 22.5424238 ] } },
{ "type": "Feature", "properties": { "name": "Harvard Medicare And Research Institute (P) Ltd.", "assumed_capacity": 500, "demand": 0.0, "load_ratio": 0.0 }, "geometry": { "type": "Point", "coordinates": [ 88.3651547, 22.542529 ] } },
{ "type": "Feature", "properties": { "name": "Life Line Diagnostic Centre And Nursing Home", "assumed_capacity": 200, "demand": 10057.8984375, "load_ratio": 50.289492187500002 }, "geometry": { "type": "Point", "coordinates": [ 88.3542247, 22.5477696 ] } },
{ "type": "Feature", "properties": { "name": "L.B.Nursing Home", "assumed_capacity": 80, "demand": 21200.7802734375, "load_ratio": 265.00975341796874 }, "geometry": { "type": "Point", "coordinates": [ 88.3736761, 22.601137 ] } },
{ "type": "Feature", "properties": { "name": "Swastik Seva Sadan", "assumed_capacity": 200, "demand": 27382.5146484375, "load_ratio": 136.91257324218751 }, "geometry": { "type": "Point", "coordinates": [ 88.3743808, 22.5347322 ] } },
{ "type": "Feature", "properties": { "name": "Netaji Subhash Nursing Home and Diagnostic Centre", "assumed_capacity": 80, "demand": 34289.52783203125, "load_ratio": 428.61909790039061 }, "geometry": { "type": "Point", "coordinates": [ 88.3253306, 22.5322517 ] } },
{ "type": "Feature", "properties": { "name": "Shusrusha Nursing Home, Kolkata", "assumed_capacity": 80, "demand": 16689.0224609375, "load_ratio": 208.61278076171874 }, "geometry": { "type": "Point", "coordinates": [ 88.3883254, 22.5772196 ] } },
{ "type": "Feature", "properties": { "name": "Mayflower Nursing Home", "assumed_capacity": 80, "demand": 0.0, "load_ratio": 0.0 }, "geometry": { "type": "Point", "coordinates": [ 88.354917, 22.5538559 ] } },
{ "type": "Feature", "properties": { "name": "The Orthopaedic And Fracture Clinic", "assumed_capacity": 200, "demand": 6239.728515625, "load_ratio": 31.198642578125 }, "geometry": { "type": "Point", "coordinates": [ 88.3550012, 22.5403082 ] } },
{ "type": "Feature", "properties": { "name": "The Sherwood Nursing Home", "assumed_capacity": 80, "demand": 0.0, "load_ratio": 0.0 }, "geometry": { "type": "Point", "coordinates": [ 88.3620675, 22.5720525 ] } },
{ "type": "Feature", "properties": { "name": "Udayan Nursing Home", "assumed_capacity": 80, "demand": 95999.955657958984, "load_ratio": 1199.9994457244873 }, "geometry": { "type": "Point", "coordinates": [ 88.3613339, 22.4743339 ] } },
{ "type": "Feature", "properties": { "name": "Unipon Hospital and Medical Sciences Pvt.Ltd -Kolkata", "assumed_capacity": 500, "demand": 73369.664953231812, "load_ratio": 146.73932990646361 }, "geometry": { "type": "Point", "coordinates": [ 88.2696868, 22.5440241 ] } },
{ "type": "Feature", "properties": { "name": "Dr Nihar Munshi Eye Foundation", "assumed_capacity": 200, "demand": 15353.22265625, "load_ratio": 76.76611328125 }, "geometry": { "type": "Point", "coordinates": [ 88.3606586, 22.5240061 ] } },
{ "type": "Feature", "properties": { "name": "Capitol Nursing Home", "assumed_capacity": 80, "demand": 0.0, "load_ratio": 0.0 }, "geometry": { "type": "Point", "coordinates": [ 88.3745605, 22.5811797 ] } },
{ "type": "Feature", "properties": { "name": "DM Hospitals Pvt. Ltd", "assumed_capacity": 200, "demand": 52510.685791015625, "load_ratio": 262.55342895507812 }, "geometry": { "type": "Point", "coordinates": [ 88.3105063, 22.4660881 ] } },
{ "type": "Feature", "properties": { "name": "Shradha Health Care Pvt. Ltd", "assumed_capacity": 200, "demand": 44858.40625, "load_ratio": 224.29203125000001 }, "geometry": { "type": "Point", "coordinates": [ 88.3380973, 22.5086023 ] } },
{ "type": "Feature", "properties": { "name": "Federation Nursing Home", "assumed_capacity": 80, "demand": 0.0, "load_ratio": 0.0 }, "geometry": { "type": "Point", "coordinates": [ 88.3750211, 22.5794459 ] } },
{ "type": "Feature", "properties": { "name": "Nightingale Hospital", "assumed_capacity": 200, "demand": 17860.26025390625, "load_ratio": 89.301301269531251 }, "geometry": { "type": "Point", "coordinates": [ 88.3515425, 22.546022 ] } },
{ "type": "Feature", "properties": { "name": "N G Medicare And Calcutta Hope Infertility Clinic", "assumed_capacity": 500, "demand": 11912.076171875, "load_ratio": 23.824152343750001 }, "geometry": { "type": "Point", "coordinates": [ 88.3591291, 22.5187786 ] } },
{ "type": "Feature", "properties": { "name": "Ekbalpur Nursing Home Pvt Ltd", "assumed_capacity": 80, "demand": 54227.76806640625, "load_ratio": 677.84710083007815 }, "geometry": { "type": "Point", "coordinates": [ 88.3250094, 22.534884 ] } },
{ "type": "Feature", "properties": { "name": "Elite Nursing Home", "assumed_capacity": 80, "demand": 7221.1796875, "load_ratio": 90.264746093750006 }, "geometry": { "type": "Point", "coordinates": [ 88.3492184, 22.522012 ] } },
{ "type": "Feature", "properties": { "name": "Emily Nursing Home", "assumed_capacity": 80, "demand": 0.0, "load_ratio": 0.0 }, "geometry": { "type": "Point", "coordinates": [ 88.3917877, 22.5784424 ] } },
{ "type": "Feature", "properties": { "name": "EVES Clinic Nursing Home", "assumed_capacity": 80, "demand": 45560.5849609375, "load_ratio": 569.5073120117188 }, "geometry": { "type": "Point", "coordinates": [ 88.392064, 22.6184713 ] } },
{ "type": "Feature", "properties": { "name": "Eskag Sanjeevani Hospital", "assumed_capacity": 200, "demand": 15207.891479492188, "load_ratio": 76.039457397460936 }, "geometry": { "type": "Point", "coordinates": [ 88.3678195, 22.6040075 ] } },
{ "type": "Feature", "properties": { "name": "Eye Foundation And Research Centre", "assumed_capacity": 200, "demand": 0.0, "load_ratio": 0.0 }, "geometry": { "type": "Point", "coordinates": [ 88.3880956, 22.5807877 ] } },
{ "type": "Feature", "properties": { "name": "Florid Nursing Home", "assumed_capacity": 80, "demand": 8786.1953125, "load_ratio": 109.82744140625 }, "geometry": { "type": "Point", "coordinates": [ 88.3880688, 22.580763 ] } },
{ "type": "Feature", "properties": { "name": "Fortis Healthcare", "assumed_capacity": 500, "demand": 0.0, "load_ratio": 0.0 }, "geometry": { "type": "Point", "coordinates": [ 88.3559132, 22.5181685 ] } },
{ "type": "Feature", "properties": { "name": "Farsight Eye Research Centre", "assumed_capacity": 200, "demand": 6735.27197265625, "load_ratio": 33.676359863281249 }, "geometry": { "type": "Point", "coordinates": [ 88.3618898, 22.539975 ] } },
{ "type": "Feature", "properties": { "name": "Jeevan Jyoti Nursing Home, Kolkata", "assumed_capacity": 80, "demand": 18625.751953125, "load_ratio": 232.8218994140625 }, "geometry": { "type": "Point", "coordinates": [ 88.3613265, 22.5835237 ] } },
{ "type": "Feature", "properties": { "name": "Five Point Micro Surgery Centre Pvt Ltd", "assumed_capacity": 200, "demand": 13541.017578125, "load_ratio": 67.705087890624995 }, "geometry": { "type": "Point", "coordinates": [ 88.3744177, 22.5997713 ] } },
{ "type": "Feature", "properties": { "name": "Implant House Laser and Diagnostic Centre", "assumed_capacity": 200, "demand": 0.0, "load_ratio": 0.0 }, "geometry": { "type": "Point", "coordinates": [ 88.3621646, 22.5395258 ] } },
{ "type": "Feature", "properties": { "name": "Vivekananda Eye Care Centre", "assumed_capacity": 200, "demand": 154797.41069030762, "load_ratio": 773.98705345153803 }, "geometry": { "type": "Point", "coordinates": [ 88.3950521, 22.5629144 ] } },
{ "type": "Feature", "properties": { "name": "Aurobindo Netralaya", "assumed_capacity": 200, "demand": 7205.5927734375, "load_ratio": 36.027963867187502 }, "geometry": { "type": "Point", "coordinates": [ 88.3656241, 22.5810552 ] } },
{ "type": "Feature", "properties": { "name": "Gamma Centauri Health Care P Ltd.,", "assumed_capacity": 200, "demand": 0.0, "load_ratio": 0.0 }, "geometry": { "type": "Point", "coordinates": [ 88.3551662, 22.5446657 ] } },
{ "type": "Feature", "properties": { "name": "Sana Nursing Home", "assumed_capacity": 80, "demand": 6828.6474609375, "load_ratio": 85.35809326171875 }, "geometry": { "type": "Point", "coordinates": [ 88.3612588, 22.5417995 ] } },
{ "type": "Feature", "properties": { "name": "Saroj Gupta Cancer Centre And Research Institute", "assumed_capacity": 200, "demand": 8816.9942016601562, "load_ratio": 44.084971008300784 }, "geometry": { "type": "Point", "coordinates": [ 88.3197114, 22.4592477 ] } },
{ "type": "Feature", "properties": { "name": "Serum Sristi Nursing Home", "assumed_capacity": 80, "demand": 25904.435546875, "load_ratio": 323.80544433593752 }, "geometry": { "type": "Point", "coordinates": [ 88.3718884, 22.596824 ] } },
{ "type": "Feature", "properties": { "name": "Seba Niketan Nursing Home", "assumed_capacity": 80, "demand": 0.0, "load_ratio": 0.0 }, "geometry": { "type": "Point", "coordinates": [ 88.3636942, 22.5619285 ] } },
{ "type": "Feature", "properties": { "name": "Ripon Nursing Home", "assumed_capacity": 80, "demand": 6735.470703125, "load_ratio": 84.193383789062494 }, "geometry": { "type": "Point", "coordinates": [ 88.3634217, 22.552661 ] } },
{ "type": "Feature", "properties": { "name": "Princep Nursing Home", "assumed_capacity": 80, "demand": 10401.146484375, "load_ratio": 130.01433105468749 }, "geometry": { "type": "Point", "coordinates": [ 88.357894, 22.564549 ] } },
{ "type": "Feature", "properties": { "name": "Prince Nursing Home, Kolkata", "assumed_capacity": 80, "demand": 0.0, "load_ratio": 0.0 }, "geometry": { "type": "Point", "coordinates": [ 88.3606486, 22.5200708 ] } },
{ "type": "Feature", "properties": { "name": "Institute Of Child Health", "assumed_capacity": 200, "demand": 0.0, "load_ratio": 0.0 }, "geometry": { "type": "Point", "coordinates": [ 88.3723074, 22.5386694 ] } },
{ "type": "Feature", "properties": { "name": "B.N Basu Memorial Clinic Appolo Nursing Home", "assumed_capacity": 200, "demand": 0.0, "load_ratio": 0.0 }, "geometry": { "type": "Point", "coordinates": [ 88.3530888, 22.5165078 ] } },
{ "type": "Feature", "properties": { "name": "Swadesh Basu Hospital", "assumed_capacity": 200, "demand": 6092.41796875, "load_ratio": 30.46208984375 }, "geometry": { "type": "Point", "coordinates": [ 88.3063807, 22.4580615 ] } },
{ "type": "Feature", "properties": { "name": "Angel Maternity and Nursing Home", "assumed_capacity": 200, "demand": 13586.8984375, "load_ratio": 67.934492187499998 }, "geometry": { "type": "Point", "coordinates": [ 88.3613316, 22.5567342 ] } },
{ "type": "Feature", "properties": { "name": "Infirmary Orthopaedic Centre and Nursing Home", "assumed_capacity": 200, "demand": 10822.8046875, "load_ratio": 54.114023437500002 }, "geometry": { "type": "Point", "coordinates": [ 88.3483134, 22.5136699 ] } },
{ "type": "Feature", "properties": { "name": "RG Stone Urology And Laparoscopy Hospital, Kolkata", "assumed_capacity": 200, "demand": 12294.740234375, "load_ratio": 61.473701171875 }, "geometry": { "type": "Point", "coordinates": [ 88.3674172, 22.5058109 ] } },
{ "type": "Feature", "properties": { "name": "Islamia Medical Institute", "assumed_capacity": 500, "demand": 6686.29931640625, "load_ratio": 13.372598632812499 }, "geometry": { "type": "Point", "coordinates": [ 88.3664475, 22.5427124 ] } },
{ "type": "Feature", "properties": { "name": "Islamia Hospital", "assumed_capacity": 200, "demand": 0.0, "load_ratio": 0.0 }, "geometry": { "type": "Point", "coordinates": [ 88.3708055, 22.5447604 ] } },
{ "type": "Feature", "properties": { "name": "A.H.IVF and Infertility Research Centre [P] Ltd", "assumed_capacity": 200, "demand": 79016.2060546875, "load_ratio": 395.08103027343748 }, "geometry": { "type": "Point", "coordinates": [ 88.3974566, 22.504121 ] } },
{ "type": "Feature", "properties": { "name": "Implant's Better Sight Centre Pvt Ltd", "assumed_capacity": 200, "demand": 6751.17138671875, "load_ratio": 33.755856933593748 }, "geometry": { "type": "Point", "coordinates": [ 88.3641677, 22.5373304 ] } },
{ "type": "Feature", "properties": { "name": "H.P.Poddar Memorial Clinic And Nursing Home", "assumed_capacity": 80, "demand": 0.0, "load_ratio": 0.0 }, "geometry": { "type": "Point", "coordinates": [ 88.3977811, 22.5631533 ] } },
{ "type": "Feature", "properties": { "name": "Deshari Complete Eye Care", "assumed_capacity": 200, "demand": 19614.36181640625, "load_ratio": 98.071809082031251 }, "geometry": { "type": "Point", "coordinates": [ 88.3684555, 22.527795 ] } },
{ "type": "Feature", "properties": { "name": "B.K.Dutt Memorial Medical Centre", "assumed_capacity": 500, "demand": 12889.640625, "load_ratio": 25.77928125 }, "geometry": { "type": "Point", "coordinates": [ 88.3717764, 22.5188765 ] } },
{ "type": "Feature", "properties": { "name": "Health Point Hospitals", "assumed_capacity": 200, "demand": 20423.5673828125, "load_ratio": 102.11783691406249 }, "geometry": { "type": "Point", "coordinates": [ 88.3532457, 22.5310898 ] } },
{ "type": "Feature", "properties": { "name": "Orchid Nursing Home", "assumed_capacity": 80, "demand": 9415.9013671875, "load_ratio": 117.69876708984376 }, "geometry": { "type": "Point", "coordinates": [ 88.3897726, 22.5729159 ] } },
{ "type": "Feature", "properties": { "name": "Poorva Eye Care", "assumed_capacity": 200, "demand": 0.0, "load_ratio": 0.0 }, "geometry": { "type": "Point", "coordinates": [ 88.3918507, 22.5682569 ] } },
{ "type": "Feature", "properties": { "name": "Park Site Nursing Home", "assumed_capacity": 80, "demand": 0.0, "load_ratio": 0.0 }, "geometry": { "type": "Point", "coordinates": [ 88.3575051, 22.5175943 ] } },
{ "type": "Feature", "properties": { "name": "Siddhi Multi Speciality Ayurveda Hospital and Research Institute", "assumed_capacity": 200, "demand": 24886.08203125, "load_ratio": 124.43041015625001 }, "geometry": { "type": "Point", "coordinates": [ 88.3414158, 22.5031868 ] } },
{ "type": "Feature", "properties": { "name": "SilverLine Eye Hospital", "assumed_capacity": 200, "demand": 6783.7333984375, "load_ratio": 33.918666992187497 }, "geometry": { "type": "Point", "coordinates": [ 88.3610965, 22.5029093 ] } },
{ "type": "Feature", "properties": { "name": "Southern Nursing Home", "assumed_capacity": 80, "demand": 0.0, "load_ratio": 0.0 }, "geometry": { "type": "Point", "coordinates": [ 88.3547008, 22.5196582 ] } },
{ "type": "Feature", "properties": { "name": "Sree Krishna Nursing Home", "assumed_capacity": 80, "demand": 124388.85259246826, "load_ratio": 1554.8606574058533 }, "geometry": { "type": "Point", "coordinates": [ 88.339032, 22.4851657 ] } },
{ "type": "Feature", "properties": { "name": "Sri Aurobindo Seva Kendra (EEDF)", "assumed_capacity": 200, "demand": 7354.21923828125, "load_ratio": 36.771096191406251 }, "geometry": { "type": "Point", "coordinates": [ 88.3644935, 22.5032339 ] } },
{ "type": "Feature", "properties": { "name": "Srijoni Healing Home", "assumed_capacity": 200, "demand": 0.0, "load_ratio": 0.0 }, "geometry": { "type": "Point", "coordinates": [ 88.3931999, 22.566876 ] } },
{ "type": "Feature", "properties": { "name": "Sri Lakshmi Narayana Trust Maternity Home and Hospital", "assumed_capacity": 200, "demand": 0.0, "load_ratio": 0.0 }, "geometry": { "type": "Point", "coordinates": [ 88.3518905, 22.5353788 ] } },
{ "type": "Feature", "properties": { "name": "Shree Vishudhanand Hospital and Research Institute", "assumed_capacity": 200, "demand": 13498.9873046875, "load_ratio": 67.494936523437502 }, "geometry": { "type": "Point", "coordinates": [ 88.355944, 22.5819362 ] } },
{ "type": "Feature", "properties": { "name": "New Nirnoy Nursing Home", "assumed_capacity": 80, "demand": 0.0, "load_ratio": 0.0 }, "geometry": { "type": "Point", "coordinates": [ 88.3735091, 22.5997076 ] } },
{ "type": "Feature", "properties": { "name": "Dolphin Nursing Home", "assumed_capacity": 80, "demand": 47927.8046875, "load_ratio": 599.09755859375002 }, "geometry": { "type": "Point", "coordinates": [ 88.3817637, 22.534982 ] } },
{ "type": "Feature", "properties": { "name": "Sevangan Medical Complex", "assumed_capacity": 500, "demand": 114017.40963745117, "load_ratio": 228.03481927490233 }, "geometry": { "type": "Point", "coordinates": [ 88.3739229, 22.4674584 ] } },
{ "type": "Feature", "properties": { "name": "Shakambari Nursing Home", "assumed_capacity": 80, "demand": 9875.1953125, "load_ratio": 123.43994140625 }, "geometry": { "type": "Point", "coordinates": [ 88.3648288, 22.5925956 ] } },
{ "type": "Feature", "properties": { "name": "Shankarnath Dialysis Centre and Nursing Home", "assumed_capacity": 80, "demand": 14949.69482421875, "load_ratio": 186.87118530273438 }, "geometry": { "type": "Point", "coordinates": [ 88.3487061, 22.5055997 ] } },
{ "type": "Feature", "properties": { "name": "Dakshinee Eye Foundation", "assumed_capacity": 200, "demand": 0.0, "load_ratio": 0.0 }, "geometry": { "type": "Point", "coordinates": [ 88.3756904, 22.4814755 ] } },
{ "type": "Feature", "properties": { "name": "Cure Centre Nursing Home", "assumed_capacity": 80, "demand": 4977.09716796875, "load_ratio": 62.213714599609375 }, "geometry": { "type": "Point", "coordinates": [ 88.3629365, 22.5017644 ] } },
{ "type": "Feature", "properties": { "name": "Complete Care", "assumed_capacity": 200, "demand": 4025.822265625, "load_ratio": 20.129111328124999 }, "geometry": { "type": "Point", "coordinates": [ 88.3574648, 22.5152875 ] } },
{ "type": "Feature", "properties": { "name": "Circular Nursing Home", "assumed_capacity": 80, "demand": 6564.76123046875, "load_ratio": 82.059515380859381 }, "geometry": { "type": "Point", "coordinates": [ 88.3668593, 22.5616486 ] } },
{ "type": "Feature", "properties": { "name": "Mohanananda Brahmachari Sishu Seva Pratisthan", "assumed_capacity": 200, "demand": 52962.486328125, "load_ratio": 264.81243164062499 }, "geometry": { "type": "Point", "coordinates": [ 88.3210942, 22.5016929 ] } },
{ "type": "Feature", "properties": { "name": "Mandakini Nursing Home", "assumed_capacity": 80, "demand": 0.0, "load_ratio": 0.0 }, "geometry": { "type": "Point", "coordinates": [ 88.3252857, 22.5319734 ] } },
{ "type": "Feature", "properties": { "name": "Critical and Trauma Care Hospital", "assumed_capacity": 200, "demand": 103193.19775390625, "load_ratio": 515.96598876953124 }, "geometry": { "type": "Point", "coordinates": [ 88.374517, 22.6235465 ] } },
{ "type": "Feature", "properties": { "name": "Swiss Park Nursing Home", "assumed_capacity": 80, "demand": 11856.892578125, "load_ratio": 148.21115722656251 }, "geometry": { "type": "Point", "coordinates": [ 88.3486225, 22.5043139 ] } },
{ "type": "Feature", "properties": { "name": "Des Nursing Home", "assumed_capacity": 80, "demand": 110170.150390625, "load_ratio": 1377.1268798828125 }, "geometry": { "type": "Point", "coordinates": [ 88.3892624, 22.6190928 ] } },
{ "type": "Feature", "properties": { "name": "Dreamland Nursing Home (Only Kolkata Police)", "assumed_capacity": 80, "demand": 0.0, "load_ratio": 0.0 }, "geometry": { "type": "Point", "coordinates": [ 88.3720238, 22.5997447 ] } },
{ "type": "Feature", "properties": { "name": "Medi Citi Nursing Home", "assumed_capacity": 80, "demand": 11753.70849609375, "load_ratio": 146.92135620117188 }, "geometry": { "type": "Point", "coordinates": [ 88.3266748, 22.5325631 ] } },
{ "type": "Feature", "properties": { "name": "Netaji Subhash Chandra Bose Cancer Reasearch Inst", "assumed_capacity": 200, "demand": 33604.347961425781, "load_ratio": 168.02173980712891 }, "geometry": { "type": "Point", "coordinates": [ 88.4076208, 22.4800554 ] } },
{ "type": "Feature", "properties": { "name": "Debdoot Sevayan", "assumed_capacity": 200, "demand": 11897.0830078125, "load_ratio": 59.485415039062502 }, "geometry": { "type": "Point", "coordinates": [ 88.3439103, 22.5079159 ] } },
{ "type": "Feature", "properties": { "name": "Microlap Nursing Home", "assumed_capacity": 80, "demand": 11415.76171875, "load_ratio": 142.697021484375 }, "geometry": { "type": "Point", "coordinates": [ 88.3504455, 22.5198037 ] } },
{ "type": "Feature", "properties": { "name": "Bellona Nursing Home And Diagnostic Centre", "assumed_capacity": 200, "demand": 23999.390625, "load_ratio": 119.996953125 }, "geometry": { "type": "Point", "coordinates": [ 88.3262127, 22.5296568 ] } },
{ "type": "Feature", "properties": { "name": "Heritage Clinic and Nursing Home", "assumed_capacity": 80, "demand": 7009.80322265625, "load_ratio": 87.622540283203122 }, "geometry": { "type": "Point", "coordinates": [ 88.3598238, 22.5534735 ] } },
{ "type": "Feature", "properties": { "name": "A Hamid's Clinic, Maternity and Nursing Home", "assumed_capacity": 80, "demand": 27124.356750488281, "load_ratio": 339.05445938110353 }, "geometry": { "type": "Point", "coordinates": [ 88.2705381, 22.5523295 ] } },
{ "type": "Feature", "properties": { "name": "Dr. Mina Majumder Seva Mandir Pvt. Ltd", "assumed_capacity": 200, "demand": 27141.10595703125, "load_ratio": 135.70552978515624 }, "geometry": { "type": "Point", "coordinates": [ 88.3708222, 22.5041947 ] } },
{ "type": "Feature", "properties": { "name": "Merryland Nursing Home", "assumed_capacity": 80, "demand": 27524.89697265625, "load_ratio": 344.06121215820315 }, "geometry": { "type": "Point", "coordinates": [ 88.3724515, 22.5554132 ] } },
{ "type": "Feature", "properties": { "name": "Northland Nursing Home", "assumed_capacity": 80, "demand": 0.0, "load_ratio": 0.0 }, "geometry": { "type": "Point", "coordinates": [ 88.3721741, 22.5983673 ] } },
{ "type": "Feature", "properties": { "name": "N.G. Nursing Home", "assumed_capacity": 80, "demand": 0.0, "load_ratio": 0.0 }, "geometry": { "type": "Point", "coordinates": [ 88.3471169, 22.5144649 ] } },
{ "type": "Feature", "properties": { "name": "Nemesis Eye Centre", "assumed_capacity": 200, "demand": 0.0, "load_ratio": 0.0 }, "geometry": { "type": "Point", "coordinates": [ 88.3545157, 22.5185965 ] } },
{ "type": "Feature", "properties": { "name": "Divine Nursing Home", "assumed_capacity": 80, "demand": 24010.81640625, "load_ratio": 300.13520507812501 }, "geometry": { "type": "Point", "coordinates": [ 88.392359, 22.5669126 ] } },
{ "type": "Feature", "properties": { "name": "Dum Dum Eye Microsurgery Centre", "assumed_capacity": 200, "demand": 57493.12255859375, "load_ratio": 287.46561279296873 }, "geometry": { "type": "Point", "coordinates": [ 88.3853162, 22.6300129 ] } },
{ "type": "Feature", "properties": { "name": "Bangur Medicare Research Institute", "assumed_capacity": 500, "demand": 27573.997131347656, "load_ratio": 55.147994262695313 }, "geometry": { "type": "Point", "coordinates": [ 88.3045549, 22.4573942 ] } },
{ "type": "Feature", "properties": { "name": "RSV Hospital", "assumed_capacity": 200, "demand": 11620.158203125, "load_ratio": 58.100791015624999 }, "geometry": { "type": "Point", "coordinates": [ 88.3447391, 22.5030685 ] } },
{ "type": "Feature", "properties": { "name": "Amrapali Medical Center and Nursing Home Pvt Ltd", "assumed_capacity": 500, "demand": 32487.6630859375, "load_ratio": 64.975326171874997 }, "geometry": { "type": "Point", "coordinates": [ 88.3922598, 22.5137686 ] } },
{ "type": "Feature", "properties": { "name": "All Asia Medical Institute", "assumed_capacity": 500, "demand": 0.0, "load_ratio": 0.0 }, "geometry": { "type": "Point", "coordinates": [ 88.3617255, 22.524196 ] } },
{ "type": "Feature", "properties": { "name": "Dhakuria Sree Ramkrishna Sebasram", "assumed_capacity": 200, "demand": 24073.451171875, "load_ratio": 120.36725585937501 }, "geometry": { "type": "Point", "coordinates": [ 88.3732912, 22.5111409 ] } },
{ "type": "Feature", "properties": { "name": "Ashutosh Nursing Home", "assumed_capacity": 80, "demand": 6711.2880859375, "load_ratio": 83.891101074218753 }, "geometry": { "type": "Point", "coordinates": [ 88.3456953, 22.5203148 ] } },
{ "type": "Feature", "properties": { "name": "Kolkata Port Trust Centenary Hospital", "assumed_capacity": 200, "demand": 40166.7744140625, "load_ratio": 200.83387207031251 }, "geometry": { "type": "Point", "coordinates": [ 88.3214565, 22.5177264 ] } },
{ "type": "Feature", "properties": { "name": "Dilkusha Nursing Home", "assumed_capacity": 80, "demand": 0.0, "load_ratio": 0.0 }, "geometry": { "type": "Point", "coordinates": [ 88.3714922, 22.5400643 ] } },
{ "type": "Feature", "properties": { "name": "Jitendra Narayan Ray Hospital", "assumed_capacity": 200, "demand": 14016.99951171875, "load_ratio": 70.084997558593756 }, "geometry": { "type": "Point", "coordinates": [ 88.3762866, 22.5832265 ] } },
{ "type": "Feature", "properties": { "name": "Mood", "assumed_capacity": 200, "demand": 0.0, "load_ratio": 0.0 }, "geometry": { "type": "Point", "coordinates": [ 88.3711521, 22.5223254 ] } },
{ "type": "Feature", "properties": { "name": "Apex Institute Of Medical Sciences", "assumed_capacity": 500, "demand": 34858.701171875, "load_ratio": 69.717402343749995 }, "geometry": { "type": "Point", "coordinates": [ 88.3904962, 22.4848844 ] } },
{ "type": "Feature", "properties": { "name": "Arogya Maternity and Nursing Home", "assumed_capacity": 200, "demand": 11568.3955078125, "load_ratio": 57.841977539062498 }, "geometry": { "type": "Point", "coordinates": [ 88.3387953, 22.5026069 ] } },
{ "type": "Feature", "properties": { "name": "Asharam Bhiwaniwala Hospital", "assumed_capacity": 200, "demand": 33847.339630126953, "load_ratio": 169.23669815063477 }, "geometry": { "type": "Point", "coordinates": [ 88.3539256, 22.5866107 ] } },
{ "type": "Feature", "properties": { "name": "Kolkata Heart Foundation", "assumed_capacity": 200, "demand": 11896.951171875, "load_ratio": 59.484755859374999 }, "geometry": { "type": "Point", "coordinates": [ 88.343991, 22.5366525 ] } },
{ "type": "Feature", "properties": { "name": "Calcutta Heart Research Center", "assumed_capacity": 200, "demand": 7595.09765625, "load_ratio": 37.975488281250001 }, "geometry": { "type": "Point", "coordinates": [ 88.3525617, 22.5233166 ] } },
{ "type": "Feature", "properties": { "name": "Grandview Nursing Home", "assumed_capacity": 80, "demand": 0.0, "load_ratio": 0.0 }, "geometry": { "type": "Point", "coordinates": [ 88.3632544, 22.5197226 ] } },
{ "type": "Feature", "properties": { "name": "Amulya Jyoti Eye Foundation", "assumed_capacity": 200, "demand": 0.0, "load_ratio": 0.0 }, "geometry": { "type": "Point", "coordinates": [ 88.3524887, 22.5207604 ] } },
{ "type": "Feature", "properties": { "name": "Micro Surgery Day Centre", "assumed_capacity": 200, "demand": 0.0, "load_ratio": 0.0 }, "geometry": { "type": "Point", "coordinates": [ 88.363941, 22.5252905 ] } },
{ "type": "Feature", "properties": { "name": "Mitra Snagh Hospital", "assumed_capacity": 200, "demand": 7940.1552734375, "load_ratio": 39.700776367187501 }, "geometry": { "type": "Point", "coordinates": [ 88.3606895, 22.5837064 ] } },
{ "type": "Feature", "properties": { "name": "Charring Cross Nursing Home", "assumed_capacity": 80, "demand": 35684.4345703125, "load_ratio": 446.05543212890626 }, "geometry": { "type": "Point", "coordinates": [ 88.3934138, 22.5767533 ] } },
{ "type": "Feature", "properties": { "name": "Palm Springs", "assumed_capacity": 200, "demand": 0.0, "load_ratio": 0.0 }, "geometry": { "type": "Point", "coordinates": [ 88.3480369, 22.5200298 ] } },
{ "type": "Feature", "properties": { "name": "GD Hospital and Diabetes Institute", "assumed_capacity": 200, "demand": 6798.2578125, "load_ratio": 33.991289062500002 }, "geometry": { "type": "Point", "coordinates": [ 88.3622351, 22.5622368 ] } },
{ "type": "Feature", "properties": { "name": "Sunetra Eye and Family Care Centre", "assumed_capacity": 200, "demand": 26084.9248046875, "load_ratio": 130.4246240234375 }, "geometry": { "type": "Point", "coordinates": [ 88.3934359, 22.4873268 ] } },
{ "type": "Feature", "properties": { "name": "Matri Mangal Pratishthan", "assumed_capacity": 200, "demand": 10464.9345703125, "load_ratio": 52.324672851562497 }, "geometry": { "type": "Point", "coordinates": [ 88.3581018, 22.5842853 ] } },
{ "type": "Feature", "properties": { "name": "Nabajiban Hospital Pvt Ltd", "assumed_capacity": 50, "demand": 0.0, "load_ratio": 0.0 }, "geometry": { "type": "Point", "coordinates": [ 88.3736607, 22.5985716 ] } },
{ "type": "Feature", "properties": { "name": "East End Nursing Home", "assumed_capacity": 200, "demand": 0.0, "load_ratio": 0.0 }, "geometry": { "type": "Point", "coordinates": [ 88.3618113, 22.5410414 ] } },
{ "type": "Feature", "properties": { "name": "Garden Reach Nursing Home", "assumed_capacity": 80, "demand": 51726.896636962891, "load_ratio": 646.58620796203616 }, "geometry": { "type": "Point", "coordinates": [ 88.2873284, 22.5494919 ] } },
{ "type": "Feature", "properties": { "name": "BRWS Hospital", "assumed_capacity": 200, "demand": 37286.38427734375, "load_ratio": 186.43192138671876 }, "geometry": { "type": "Point", "coordinates": [ 88.3776719, 22.4712333 ] } },
{ "type": "Feature", "properties": { "name": "Good Samaritan Hospital", "assumed_capacity": 200, "demand": 0.0, "load_ratio": 0.0 }, "geometry": { "type": "Point", "coordinates": [ 88.3705661, 22.5392157 ] } },
{ "type": "Feature", "properties": { "name": "Medilink Health Care Diagnostic Centre Pvt. Ltd.", "assumed_capacity": 200, "demand": 12336.1455078125, "load_ratio": 61.680727539062502 }, "geometry": { "type": "Point", "coordinates": [ 88.3704156, 22.602305 ] } },
{ "type": "Feature", "properties": { "name": "The Medicure, Kolkata", "assumed_capacity": 200, "demand": 0.0, "load_ratio": 0.0 }, "geometry": { "type": "Point", "coordinates": [ 88.3710073, 22.5213682 ] } },
{ "type": "Feature", "properties": { "name": "Pratihar Nursing Home", "assumed_capacity": 80, "demand": 13664.78515625, "load_ratio": 170.809814453125 }, "geometry": { "type": "Point", "coordinates": [ 88.3182228, 22.5002449 ] } },
{ "type": "Feature", "properties": { "name": "Revival Nursing Home", "assumed_capacity": 80, "demand": 55997.3505859375, "load_ratio": 699.96688232421877 }, "geometry": { "type": "Point", "coordinates": [ 88.379239, 22.5155247 ] } },
{ "type": "Feature", "properties": { "name": "Mission Of Mercy Hospital And Research Centre", "assumed_capacity": 200, "demand": 0.0, "load_ratio": 0.0 }, "geometry": { "type": "Point", "coordinates": [ 88.3602614, 22.5478931 ] } },
{ "type": "Feature", "properties": { "name": "The Leprosy Mission Permananda Memorial Leprosy Ho", "assumed_capacity": 200, "demand": 13990.4970703125, "load_ratio": 69.952485351562501 }, "geometry": { "type": "Point", "coordinates": [ 88.3748181, 22.5833714 ] } },
{ "type": "Feature", "properties": { "name": "Baghajatin State General Hospital", "assumed_capacity": 200, "demand": 20085.5693359375, "load_ratio": 100.42784667968751 }, "geometry": { "type": "Point", "coordinates": [ 88.3749845, 22.4830661 ] } },
{ "type": "Feature", "properties": { "name": "Sterling Hospital, Kolkata", "assumed_capacity": 200, "demand": 542.26751708984375, "load_ratio": 2.7113375854492188 }, "geometry": { "type": "Point", "coordinates": [ 88.3677826, 22.5999558 ] } },
{ "type": "Feature", "properties": { "name": "Calcutta Institute Of Maxill Ofacial Surgery and R", "assumed_capacity": 200, "demand": 13875.0576171875, "load_ratio": 69.375288085937498 }, "geometry": { "type": "Point", "coordinates": [ 88.3904963, 22.5151731 ] } },
{ "type": "Feature", "properties": { "name": "Netaji Eye Hospital", "assumed_capacity": 200, "demand": 22245.716461181641, "load_ratio": 111.2285823059082 }, "geometry": { "type": "Point", "coordinates": [ 88.28518, 22.4849865 ] } },
{ "type": "Feature", "properties": { "name": "Love Bailey Nursing Home", "assumed_capacity": 80, "demand": 32618.377197265625, "load_ratio": 407.72971496582034 }, "geometry": { "type": "Point", "coordinates": [ 88.3102833, 22.4708432 ] } },
{ "type": "Feature", "properties": { "name": "Astha Medical Services Pvt Ltd", "assumed_capacity": 500, "demand": 28422.2421875, "load_ratio": 56.844484375 }, "geometry": { "type": "Point", "coordinates": [ 88.3788457, 22.6296661 ] } },
{ "type": "Feature", "properties": { "name": "TRA General Hospital - Kolkata", "assumed_capacity": 200, "demand": 0.0, "load_ratio": 0.0 }, "geometry": { "type": "Point", "coordinates": [ 88.3710095, 22.5395189 ] } },
{ "type": "Feature", "properties": { "name": "Lions Club Of Calcutta", "assumed_capacity": 200, "demand": 0.0, "load_ratio": 0.0 }, "geometry": { "type": "Point", "coordinates": [ 88.3584841, 22.5408036 ] } },
{ "type": "Feature", "properties": { "name": "Vivekananda Hospital and Research Institute", "assumed_capacity": 200, "demand": 190913.65661621094, "load_ratio": 954.56828308105469 }, "geometry": { "type": "Point", "coordinates": [ 88.3049056, 22.5113168 ] } },
{ "type": "Feature", "properties": { "name": "Ayub Ansari Nursing Home", "assumed_capacity": 80, "demand": 25920.22607421875, "load_ratio": 324.00282592773436 }, "geometry": { "type": "Point", "coordinates": [ 88.2812016, 22.5488373 ] } },
{ "type": "Feature", "properties": { "name": "Rit-Tik Nursing Home", "assumed_capacity": 80, "demand": 6721.7275390625, "load_ratio": 84.021594238281253 }, "geometry": { "type": "Point", "coordinates": [ 88.3671007, 22.5596522 ] } },
{ "type": "Feature", "properties": { "name": "Calcutta Lions Netra Niketan", "assumed_capacity": 200, "demand": 4972.421875, "load_ratio": 24.862109375 }, "geometry": { "type": "Point", "coordinates": [ 88.358423, 22.4963257 ] } },
{ "type": "Feature", "properties": { "name": "Dr. M. N. Chatterjee Memorial Eye Hospital", "assumed_capacity": 200, "demand": 13365.08203125, "load_ratio": 66.825410156250001 }, "geometry": { "type": "Point", "coordinates": [ 88.3741294, 22.5781464 ] } },
{ "type": "Feature", "properties": { "name": "Garia Eye Clinic and Micro Surgery Centre", "assumed_capacity": 200, "demand": 26966.704681396484, "load_ratio": 134.83352340698241 }, "geometry": { "type": "Point", "coordinates": [ 88.379223, 22.4680074 ] } },
{ "type": "Feature", "properties": { "name": "Suburban Eye Microsurgery Centre", "assumed_capacity": 200, "demand": 24758.830810546875, "load_ratio": 123.79415405273437 }, "geometry": { "type": "Point", "coordinates": [ 88.3072391, 22.4726658 ] } },
{ "type": "Feature", "properties": { "name": "East Calcutta Clinic and Nursing Home", "assumed_capacity": 80, "demand": 3993.14990234375, "load_ratio": 49.914373779296874 }, "geometry": { "type": "Point", "coordinates": [ 88.3955385, 22.5636355 ] } },
{ "type": "Feature", "properties": { "name": "New Saraju Nursing Home", "assumed_capacity": 80, "demand": 30915.203125, "load_ratio": 386.44003906249998 }, "geometry": { "type": "Point", "coordinates": [ 88.3795155, 22.6299282 ] } },
{ "type": "Feature", "properties": { "name": "Calcutta Pay Clinic and Hospital Pvt Ltd", "assumed_capacity": 200, "demand": 7297.072265625, "load_ratio": 36.485361328125002 }, "geometry": { "type": "Point", "coordinates": [ 88.3698897, 22.5404476 ] } },
{ "type": "Feature", "properties": { "name": "Lake Nursing Home", "assumed_capacity": 80, "demand": 5053.90869140625, "load_ratio": 63.173858642578125 }, "geometry": { "type": "Point", "coordinates": [ 88.3669719, 22.5133053 ] } },
{ "type": "Feature", "properties": { "name": "KD Cure S.C. Das Memorial Medical Center", "assumed_capacity": 500, "demand": 10892.330078125, "load_ratio": 21.784660156249998 }, "geometry": { "type": "Point", "coordinates": [ 88.3648047, 22.5077512 ] } },
{ "type": "Feature", "properties": { "name": "M. B. Nursing Home", "assumed_capacity": 80, "demand": 6009.6123046875, "load_ratio": 75.120153808593756 }, "geometry": { "type": "Point", "coordinates": [ 88.3710368, 22.5400629 ] } },
{ "type": "Feature", "properties": { "name": "Medline Nursing Home", "assumed_capacity": 80, "demand": 0.0, "load_ratio": 0.0 }, "geometry": { "type": "Point", "coordinates": [ 88.3483963, 22.5051617 ] } },
{ "type": "Feature", "properties": { "name": "Sunflower Nursing Home, Kolkata", "assumed_capacity": 80, "demand": 20656.30078125, "load_ratio": 258.20375976562502 }, "geometry": { "type": "Point", "coordinates": [ 88.3701812, 22.5889194 ] } },
{ "type": "Feature", "properties": { "name": "Mediview Nursing Home Pvt Ltd", "assumed_capacity": 80, "demand": 0.0, "load_ratio": 0.0 }, "geometry": { "type": "Point", "coordinates": [ 88.3724879, 22.5341754 ] } },
{ "type": "Feature", "properties": { "name": "Netra Sevasram", "assumed_capacity": 200, "demand": 65802.090209960938, "load_ratio": 329.01045104980471 }, "geometry": { "type": "Point", "coordinates": [ 88.3553157, 22.5665163 ] } },
{ "type": "Feature", "properties": { "name": "Marwari Relief Society Hospital", "assumed_capacity": 200, "demand": 0.0, "load_ratio": 0.0 }, "geometry": { "type": "Point", "coordinates": [ 88.3573455, 22.5827281 ] } },
{ "type": "Feature", "properties": { "name": "Don View Nursing Home", "assumed_capacity": 80, "demand": 11808.787109375, "load_ratio": 147.60983886718751 }, "geometry": { "type": "Point", "coordinates": [ 88.3731081, 22.5441888 ] } },
{ "type": "Feature", "properties": { "name": "Himalaya Vision Care Centre", "assumed_capacity": 200, "demand": 12487.3212890625, "load_ratio": 62.436606445312499 }, "geometry": { "type": "Point", "coordinates": [ 88.3545975, 22.5174951 ] } },
{ "type": "Feature", "properties": { "name": "Kalidas Mullick Sebayatan", "assumed_capacity": 200, "demand": 6948.6796875, "load_ratio": 34.743398437499998 }, "geometry": { "type": "Point", "coordinates": [ 88.3572811, 22.5671621 ] } },
{ "type": "Feature", "properties": { "name": "Orthopaedic Centre", "assumed_capacity": 200, "demand": 13550.8046875, "load_ratio": 67.754023437499995 }, "geometry": { "type": "Point", "coordinates": [ 88.3909348, 22.5827554 ] } },
{ "type": "Feature", "properties": { "name": "Lions North Kolkata Hospital and Medical Centre", "assumed_capacity": 500, "demand": 69852.55810546875, "load_ratio": 139.70511621093749 }, "geometry": { "type": "Point", "coordinates": [ 88.3544424, 22.4818251 ] } },
{ "type": "Feature", "properties": { "name": "R-Fleming Hospital / Zodiac Medicare and Hospital Pvt.Ltd.", "assumed_capacity": 500, "demand": 142830.35820007324, "load_ratio": 285.6607164001465 }, "geometry": { "type": "Point", "coordinates": [ 88.389544, 22.5409374 ] } },
{ "type": "Feature", "properties": { "name": "Abinash Dutta Maternity Home", "assumed_capacity": 200, "demand": 24903.627685546875, "load_ratio": 124.51813842773437 }, "geometry": { "type": "Point", "coordinates": [ 88.359983, 22.595575 ] } },
{ "type": "Feature", "properties": { "name": "Lady Dufferin Victoria Hospital, Kolkata", "assumed_capacity": 200, "demand": 13290.03857421875, "load_ratio": 66.450192871093748 }, "geometry": { "type": "Point", "coordinates": [ 88.3657939, 22.5691437 ] } },
{ "type": "Feature", "properties": { "name": "S.S.K.M. Hospital", "assumed_capacity": 200, "demand": 0.0, "load_ratio": 0.0 }, "geometry": { "type": "Point", "coordinates": [ 88.324507, 22.534245 ] } },
{ "type": "Feature", "properties": { "name": "Anandalok Hospital", "assumed_capacity": 200, "demand": 0.0, "load_ratio": 0.0 }, "geometry": { "type": "Point", "coordinates": [ 88.345912, 22.5311485 ] } },
{ "type": "Feature", "properties": { "name": "Cancer Hospital", "assumed_capacity": 200, "demand": 84949.154052734375, "load_ratio": 424.74577026367189 }, "geometry": { "type": "Point", "coordinates": [ 88.3884232, 22.5267338 ] } },
{ "type": "Feature", "properties": { "name": "Harlaka Hospital", "assumed_capacity": 200, "demand": 10710.865234375, "load_ratio": 53.554326171874997 }, "geometry": { "type": "Point", "coordinates": [ 88.34615, 22.532648 ] } },
{ "type": "Feature", "properties": { "name": "Hope Hospital", "assumed_capacity": 200, "demand": 25401.9453125, "load_ratio": 127.00972656250001 }, "geometry": { "type": "Point", "coordinates": [ 88.3227465, 22.508538 ] } },
{ "type": "Feature", "properties": { "name": "Saraju Nursing Home", "assumed_capacity": 200, "demand": 21934.9482421875, "load_ratio": 109.6747412109375 }, "geometry": { "type": "Point", "coordinates": [ 88.378271, 22.629564 ] } },
{ "type": "Feature", "properties": { "name": "Mission Hospital", "assumed_capacity": 200, "demand": 5580.447265625, "load_ratio": 27.902236328124999 }, "geometry": { "type": "Point", "coordinates": [ 88.363293, 22.552075 ] } },
{ "type": "Feature", "properties": { "name": "Miot Hospitals", "assumed_capacity": 200, "demand": 0.0, "load_ratio": 0.0 }, "geometry": { "type": "Point", "coordinates": [ 88.3596261, 22.5444397 ] } },
{ "type": "Feature", "properties": { "name": "Sankara Nethralaya", "assumed_capacity": 200, "demand": 0.0, "load_ratio": 0.0 }, "geometry": { "type": "Point", "coordinates": [ 88.3607871, 22.563724 ] } },
{ "type": "Feature", "properties": { "name": "Kottakkal Ayurvedic Hospital and Research Centre", "assumed_capacity": 200, "demand": 6462.89306640625, "load_ratio": 32.314465332031247 }, "geometry": { "type": "Point", "coordinates": [ 88.3525175, 22.5155617 ] } },
{ "type": "Feature", "properties": { "name": "Dr. Agarwals Eye Hospital", "assumed_capacity": 200, "demand": 0.0, "load_ratio": 0.0 }, "geometry": { "type": "Point", "coordinates": [ 88.39227, 22.514789 ] } },
{ "type": "Feature", "properties": { "name": "Duncan Gleneagles Hospitals", "assumed_capacity": 200, "demand": 0.0, "load_ratio": 0.0 }, "geometry": { "type": "Point", "coordinates": [ 88.3590386, 22.5331915 ] } },
{ "type": "Feature", "properties": { "name": "Netaji Eye Hospital", "assumed_capacity": 200, "demand": 11968.2880859375, "load_ratio": 59.841440429687502 }, "geometry": { "type": "Point", "coordinates": [ 88.3432901, 22.5321441 ] } },
{ "type": "Feature", "properties": { "name": "Disha Eye Hospital", "assumed_capacity": 200, "demand": 21082.140625, "load_ratio": 105.410703125 }, "geometry": { "type": "Point", "coordinates": [ 88.3659743, 22.5202511 ] } },
{ "type": "Feature", "properties": { "name": "B.P. Poddar Hospital", "assumed_capacity": 500, "demand": 0.0, "load_ratio": 0.0 }, "geometry": { "type": "Point", "coordinates": [ 88.3324303, 22.5117693 ] } },
{ "type": "Feature", "properties": { "name": "Tapan Sinha Memorial Hospital", "assumed_capacity": 200, "demand": 19619.3388671875, "load_ratio": 98.096694335937499 }, "geometry": { "type": "Point", "coordinates": [ 88.3419528, 22.4865885 ] } },
{ "type": "Feature", "properties": { "name": "AMRI Hospital", "assumed_capacity": 500, "demand": 12634.1044921875, "load_ratio": 25.268208984375001 }, "geometry": { "type": "Point", "coordinates": [ 88.3676076, 22.5125412 ] } },
{ "type": "Feature", "properties": { "name": "Dental Hospital", "assumed_capacity": 50, "demand": 8368.2119140625, "load_ratio": 167.36423828125001 }, "geometry": { "type": "Point", "coordinates": [ 88.3456137, 22.5174614 ] } },
{ "type": "Feature", "properties": { "name": "ID Hospital", "assumed_capacity": 200, "demand": 0.0, "load_ratio": 0.0 }, "geometry": { "type": "Point", "coordinates": [ 88.3984031, 22.5645031 ] } },
{ "type": "Feature", "properties": { "name": "Divine Nursing Home", "assumed_capacity": 200, "demand": 0.0, "load_ratio": 0.0 }, "geometry": { "type": "Point", "coordinates": [ 88.3927561, 22.5662809 ] } },
{ "type": "Feature", "properties": { "name": "M R Bangur Super Speciality Hospital New Wing", "assumed_capacity": 50, "demand": 16744.28759765625, "load_ratio": 334.88575195312501 }, "geometry": { "type": "Point", "coordinates": [ 88.3457052, 22.4973707 ] } },
{ "type": "Feature", "properties": { "name": "Medical College and Hospital", "assumed_capacity": 500, "demand": 6575.11572265625, "load_ratio": 13.1502314453125 }, "geometry": { "type": "Point", "coordinates": [ 88.3684915, 22.5638343 ] } },
{ "type": "Feature", "properties": { "name": "Horizon Hospital", "assumed_capacity": 200, "demand": 0.0, "load_ratio": 0.0 }, "geometry": { "type": "Point", "coordinates": [ 88.372774, 22.5582114 ] } },
{ "type": "Feature", "properties": { "name": "কার্ডিওলজি জরুরী বিভাগ ও ই.সি.জি, ইকোকার্ডিওগ্ৰাফি পরিষেবা", "assumed_capacity": 200, "demand": 0.0, "load_ratio": 0.0 }, "geometry": { "type": "Point", "coordinates": [ 88.3423533, 22.5403443 ] } },
{ "type": "Feature", "properties": { "name": "SSKM College and Hospital", "assumed_capacity": 500, "demand": 6375.4267578125, "load_ratio": 12.750853515625 }, "geometry": { "type": "Point", "coordinates": [ 88.342277228582063, 22.539837222159971 ] } },
{ "type": "Feature", "properties": { "name": "SVS Marwari Hospital", "assumed_capacity": 200, "demand": 6771.0712890625, "load_ratio": 33.855356445312502 }, "geometry": { "type": "Point", "coordinates": [ 88.368018217977891, 22.57580304812647 ] } },
{ "type": "Feature", "properties": { "name": "Narcotic Disease Hospital", "assumed_capacity": 200, "demand": 13305.4423828125, "load_ratio": 66.527211914062505 }, "geometry": { "type": "Point", "coordinates": [ 88.370313332846422, 22.576413174063223 ] } },
{ "type": "Feature", "properties": { "name": null, "assumed_capacity": 200, "demand": 34378.80029296875, "load_ratio": 171.89400146484374 }, "geometry": { "type": "Point", "coordinates": [ 88.372089243767249, 22.564611557304101 ] } },
{ "type": "Feature", "properties": { "name": "Calcutta National Medical College & Hospital", "assumed_capacity": 500, "demand": 15141.32568359375, "load_ratio": 30.282651367187501 }, "geometry": { "type": "Point", "coordinates": [ 88.37149278395934, 22.546128504427124 ] } },
{ "type": "Feature", "properties": { "name": "R.G. Kar Medical College & Hospital", "assumed_capacity": 500, "demand": 90352.109130859375, "load_ratio": 180.70421826171875 }, "geometry": { "type": "Point", "coordinates": [ 88.378336846442892, 22.604424606961121 ] } },
{ "type": "Feature", "properties": { "name": "Bharat Sevashram Sangha Hospital", "assumed_capacity": 200, "demand": 7909.84375, "load_ratio": 39.54921875 }, "geometry": { "type": "Point", "coordinates": [ 88.369696385991517, 22.52197177016745 ] } },
{ "type": "Feature", "properties": { "name": "MR Bangur Hospital", "assumed_capacity": 200, "demand": 12884.3212890625, "load_ratio": 64.421606445312506 }, "geometry": { "type": "Point", "coordinates": [ 88.346420425708374, 22.499277936858444 ] } },
{ "type": "Feature", "properties": { "name": "Bijoygarh State General Hospital", "assumed_capacity": 200, "demand": 39734.6396484375, "load_ratio": 198.67319824218751 }, "geometry": { "type": "Point", "coordinates": [ 88.364434123983116, 22.487495897834073 ] } },
{ "type": "Feature", "properties": { "name": "KPC Medical College And Hospital", "assumed_capacity": 500, "demand": 33269.84423828125, "load_ratio": 66.539688476562503 }, "geometry": { "type": "Point", "coordinates": [ 88.373333894300714, 22.493990947902972 ] } },
{ "type": "Feature", "properties": { "name": "Sambhunath Pandit Hospital", "assumed_capacity": 200, "demand": 21155.5654296875, "load_ratio": 105.7778271484375 }, "geometry": { "type": "Point", "coordinates": [ 88.348142079987326, 22.538630784859773 ] } },
{ "type": "Feature", "properties": { "name": "Police Hospital", "assumed_capacity": 200, "demand": 0.0, "load_ratio": 0.0 }, "geometry": { "type": "Point", "coordinates": [ 88.34538649014354, 22.537343268125458 ] } },
{ "type": "Feature", "properties": { "name": "Bangur Institute Of Neurosciences", "assumed_capacity": 200, "demand": 33432.552734375, "load_ratio": 167.16276367187501 }, "geometry": { "type": "Point", "coordinates": [ 88.340426149796059, 22.538012069284033 ] } },
{ "type": "Feature", "properties": { "name": "Military Hospital", "assumed_capacity": 200, "demand": 35146.84065246582, "load_ratio": 175.73420326232909 }, "geometry": { "type": "Point", "coordinates": [ 88.337979312747095, 22.538981250746531 ] } },
{ "type": "Feature", "properties": { "name": "BNR Hospital", "assumed_capacity": 200, "demand": 112667.52630615234, "load_ratio": 563.33763153076177 }, "geometry": { "type": "Point", "coordinates": [ 88.310154492314197, 22.546107959153673 ] } },
{ "type": "Feature", "properties": { "name": "The Calcutta Medical Research Institute", "assumed_capacity": 500, "demand": 0.0, "load_ratio": 0.0 }, "geometry": { "type": "Point", "coordinates": [ 88.327892858817918, 22.532427979531192 ] } },
{ "type": "Feature", "properties": { "name": "BM Birla Heart Research Centre", "assumed_capacity": 200, "demand": 0.0, "load_ratio": 0.0 }, "geometry": { "type": "Point", "coordinates": [ 88.328338070899662, 22.532778181651306 ] } },
{ "type": "Feature", "properties": { "name": "Woodlands Multispeciality Hospital", "assumed_capacity": 500, "demand": 0.0, "load_ratio": 0.0 }, "geometry": { "type": "Point", "coordinates": [ 88.329312334663342, 22.532295754377646 ] } },
{ "type": "Feature", "properties": { "name": "Woodlands Multispeciality Hospital", "assumed_capacity": 500, "demand": 12828.189453125, "load_ratio": 25.656378906250001 }, "geometry": { "type": "Point", "coordinates": [ 88.329188016571663, 22.532321097129643 ] } },
{ "type": "Feature", "properties": { "name": "Kothari Medical Research Centre", "assumed_capacity": 500, "demand": 0.0, "load_ratio": 0.0 }, "geometry": { "type": "Point", "coordinates": [ 88.330579203834574, 22.532666744031772 ] } },
{ "type": "Feature", "properties": { "name": "Command Hospital", "assumed_capacity": 200, "demand": 24289.251953125, "load_ratio": 121.446259765625 }, "geometry": { "type": "Point", "coordinates": [ 88.33052487113828, 22.529448595410589 ] } },
{ "type": "Feature", "properties": { "name": "Apollo Gleneagles Hospitals", "assumed_capacity": 500, "demand": 0.0, "load_ratio": 0.0 }, "geometry": { "type": "Point", "coordinates": [ 88.401461564162247, 22.574363235470628 ] } },
{ "type": "Feature", "properties": { "name": "Apollo Gleneagles Hospitals", "assumed_capacity": 500, "demand": 24673.049011230469, "load_ratio": 49.346098022460936 }, "geometry": { "type": "Point", "coordinates": [ 88.401551260297921, 22.574672508437917 ] } },
{ "type": "Feature", "properties": { "name": "KMC Urban Health Centre", "assumed_capacity": 200, "demand": 38180.43408203125, "load_ratio": 190.90217041015626 }, "geometry": { "type": "Point", "coordinates": [ 88.33567318269418, 22.521289971747692 ] } },
{ "type": "Feature", "properties": { "name": "North City Hospital", "assumed_capacity": 200, "demand": 0.0, "load_ratio": 0.0 }, "geometry": { "type": "Point", "coordinates": [ 88.393747688732063, 22.589289471299747 ] } },
{ "type": "Feature", "properties": { "name": "ESI Hospital Maniktala", "assumed_capacity": 200, "demand": 35687.1806640625, "load_ratio": 178.43590332031249 }, "geometry": { "type": "Point", "coordinates": [ 88.392452237650247, 22.585676197854454 ] } },
{ "type": "Feature", "properties": { "name": "Belle Vue Clinic", "assumed_capacity": 200, "demand": 0.0, "load_ratio": 0.0 }, "geometry": { "type": "Point", "coordinates": [ 88.355042927127457, 22.542488537507804 ] } },
{ "type": "Feature", "properties": { "name": "Gamma Centauri Healthcare Private Limited", "assumed_capacity": 200, "demand": 7081.50390625, "load_ratio": 35.407519531250003 }, "geometry": { "type": "Point", "coordinates": [ 88.353369563074409, 22.543710382695711 ] } },
{ "type": "Feature", "properties": { "name": "Ruby General Hospital", "assumed_capacity": 500, "demand": 107103.78709411621, "load_ratio": 214.20757418823243 }, "geometry": { "type": "Point", "coordinates": [ 88.40307866341098, 22.51353855415195 ] } },
{ "type": "Feature", "properties": { "name": "Medica Superspecialty Hospital", "assumed_capacity": 500, "demand": 0.0, "load_ratio": 0.0 }, "geometry": { "type": "Point", "coordinates": [ 88.400968457373267, 22.494254867301166 ] } },
{ "type": "Feature", "properties": { "name": "Vision Care Hospital", "assumed_capacity": 200, "demand": 16673.7763671875, "load_ratio": 83.368881835937501 }, "geometry": { "type": "Point", "coordinates": [ 88.402204234587117, 22.494039606464732 ] } },
{ "type": "Feature", "properties": { "name": "Vivekananda ENT Clinic", "assumed_capacity": 200, "demand": 6689.97021484375, "load_ratio": 33.449851074218749 }, "geometry": { "type": "Point", "coordinates": [ 88.366502900000015, 22.4715674 ] } },
{ "type": "Feature", "properties": { "name": "Fortis Hospitals", "assumed_capacity": 500, "demand": 19691.690063476562, "load_ratio": 39.383380126953128 }, "geometry": { "type": "Point", "coordinates": [ 88.400964685773445, 22.520312632230041 ] } },
{ "type": "Feature", "properties": { "name": "Genesis Hospital, Kolkata", "assumed_capacity": 200, "demand": 11442.8896484375, "load_ratio": 57.214448242187501 }, "geometry": { "type": "Point", "coordinates": [ 88.3991255, 22.51412735 ] } },
{ "type": "Feature", "properties": { "name": "Shree Guru Sangha Hospital Doctors Unit", "assumed_capacity": 200, "demand": 0.0, "load_ratio": 0.0 }, "geometry": { "type": "Point", "coordinates": [ 88.368663745509465, 22.473476649328109 ] } },
{ "type": "Feature", "properties": { "name": "Shree Guru Ashram Hospital Indoor Unit", "assumed_capacity": 200, "demand": 6465.146484375, "load_ratio": 32.325732421875003 }, "geometry": { "type": "Point", "coordinates": [ 88.368606832517713, 22.473381745484645 ] } },
{ "type": "Feature", "properties": { "name": "Shree Guru Sangha Hospital Outdoor Unit", "assumed_capacity": 200, "demand": 6818.88134765625, "load_ratio": 34.094406738281251 }, "geometry": { "type": "Point", "coordinates": [ 88.368749498536886, 22.473581483493522 ] } },
{ "type": "Feature", "properties": { "name": "North City Hospital Emergency Unit", "assumed_capacity": 200, "demand": 9299.130859375, "load_ratio": 46.495654296875003 }, "geometry": { "type": "Point", "coordinates": [ 88.393510288393131, 22.588675280987324 ] } },
{ "type": "Feature", "properties": { "name": "Desun Hospital And Heart Research Institute", "assumed_capacity": 200, "demand": 9130.37548828125, "load_ratio": 45.651877441406249 }, "geometry": { "type": "Point", "coordinates": [ 88.403262123101484, 22.514578292361257 ] } },
{ "type": "Feature", "properties": { "name": "B R Singh Hospital", "assumed_capacity": 200, "demand": 0.0, "load_ratio": 0.0 }, "geometry": { "type": "Point", "coordinates": [ 88.371099818888126, 22.565450520892576 ] } },
{ "type": "Feature", "properties": { "name": "Bp Poddar Hospital And Medical Research Ltd", "assumed_capacity": 500, "demand": 6032.826171875, "load_ratio": 12.065652343749999 }, "geometry": { "type": "Point", "coordinates": [ 88.332371018219504, 22.511830135981022 ] } },
{ "type": "Feature", "properties": { "name": null, "assumed_capacity": 200, "demand": 16413.1591796875, "load_ratio": 82.0657958984375 }, "geometry": { "type": "Point", "coordinates": [ 88.375791501732849, 22.479165125853555 ] } },
{ "type": "Feature", "properties": { "name": "ESI OFFICE", "assumed_capacity": 200, "demand": 13300.7470703125, "load_ratio": 66.503735351562497 }, "geometry": { "type": "Point", "coordinates": [ 88.373493268371718, 22.572794164572475 ] } },
{ "type": "Feature", "properties": { "name": "I.D & B.G. Hospital, Beliaghata", "assumed_capacity": 200, "demand": 13391.095703125, "load_ratio": 66.955478515625003 }, "geometry": { "type": "Point", "coordinates": [ 88.398452426388928, 22.564568181692589 ] } },
{ "type": "Feature", "properties": { "name": "Dr. B. C. Roy Post Graduate Institute of Paediatric Sciences", "assumed_capacity": 200, "demand": 0.0, "load_ratio": 0.0 }, "geometry": { "type": "Point", "coordinates": [ 88.387615630735993, 22.574161600847312 ] } },
{ "type": "Feature", "properties": { "name": "Rabindranath Tagore International Institute of Cardiac Sciences", "assumed_capacity": 200, "demand": 45199.884521484375, "load_ratio": 225.99942260742188 }, "geometry": { "type": "Point", "coordinates": [ 88.402169081260496, 22.491272746126562 ] } },
{ "type": "Feature", "properties": { "name": "Institute Of Neurosciences Kolkata", "assumed_capacity": 200, "demand": 0.0, "load_ratio": 0.0 }, "geometry": { "type": "Point", "coordinates": [ 88.362091417460334, 22.547002798673041 ] } },
{ "type": "Feature", "properties": { "name": "Royd Nursing Home and Healthcare Limited", "assumed_capacity": 200, "demand": 39453.02490234375, "load_ratio": 197.26512451171874 }, "geometry": { "type": "Point", "coordinates": [ 88.3543494, 22.5532667 ] } },
{ "type": "Feature", "properties": { "name": "Calcutta Pavlov Hospital", "assumed_capacity": 200, "demand": 11112.2763671875, "load_ratio": 55.561381835937503 }, "geometry": { "type": "Point", "coordinates": [ 88.375506046782661, 22.547576202140171 ] } },
{ "type": "Feature", "properties": { "name": "KSD Jain Dental College and Hospital", "assumed_capacity": 200, "demand": 55061.3994140625, "load_ratio": 275.30699707031249 }, "geometry": { "type": "Point", "coordinates": [ 88.370324360774632, 22.617138969823859 ] } },
{ "type": "Feature", "properties": { "name": "Nil Ratan Sircar Medical College and Hospital", "assumed_capacity": 500, "demand": 0.0, "load_ratio": 0.0 }, "geometry": { "type": "Point", "coordinates": [ 88.370179678293056, 22.563716512642273 ] } },
{ "type": "Feature", "properties": { "name": "North Maternity Home - Darjipara Matri Sadan — নর্থ মেটার্নিটি হোম (দর্জিপাড়া মাতৃসদন)", "assumed_capacity": 200, "demand": 0.0, "load_ratio": 0.0 }, "geometry": { "type": "Point", "coordinates": [ 88.364724831806882, 22.59137438138044 ] } },
{ "type": "Feature", "properties": { "name": null, "assumed_capacity": 200, "demand": 32038.64453125, "load_ratio": 160.19322265624999 }, "geometry": { "type": "Point", "coordinates": [ 88.379804778441368, 22.543474096686001 ] } },
{ "type": "Feature", "properties": { "name": "Regal Nursing home", "assumed_capacity": 200, "demand": 13485.904296875, "load_ratio": 67.429521484375002 }, "geometry": { "type": "Point", "coordinates": [ 88.370443287368587, 22.534764301740967 ] } },
{ "type": "Feature", "properties": { "name": "Institute of Neurosciences OPD Building", "assumed_capacity": 200, "demand": 0.0, "load_ratio": 0.0 }, "geometry": { "type": "Point", "coordinates": [ 88.359132101648896, 22.5420163886917 ] } }
]
}
